{
"type": "FeatureCollection",
"name": "Munich_reservoirs",
"crs": { "type": "name", "properties": { "name": "urn:ogc:def:crs:OGC:1.3:CRS84" } },
"features": [
{"type":"Feature","properties":{"id":0,"name":"North West","key":"I- North West"},"geometry":{"type":"MultiPolygon","coordinates":[[[[11.534771626908654,48.142787127029408],[11.534904670375891,48.143226844766481],[11.535423046611665,48.144931814820076],[11.535771689035728,48.145421562354173],[11.537248831937662,48.148745600239899],[11.537845193978821,48.161733606425315],[11.538459905621245,48.169505251460031],[11.538863596849106,48.171812040682887],[11.538992044057972,48.172093498577873],[11.539120491266837,48.172521801106122],[11.539267288076966,48.172839966382725],[11.539551706896598,48.173317210596089],[11.539918698921925,48.173769976641267],[11.540492123961497,48.174378757116457],[11.540849941186192,48.174654082595893],[11.54160686223843,48.17513436905994],[11.542437181695728,48.175639123871001],[11.543139053944172,48.175945033459357],[11.543464759366652,48.176035276439279],[11.543785877388812,48.176094928491352],[11.54405882770765,48.176104105723972],[11.544226267819207,48.176085751257084],[11.547134679619925,48.175987860656065],[11.55515345537332,48.1758043152754],[11.561722612626674,48.175943503915946],[11.564750296835623,48.175888440323085],[11.565222799068232,48.175946563002697],[11.56578704930717,48.176038335520552],[11.566709116770809,48.176286120498233],[11.568287182479713,48.176723565128242],[11.569686339576277,48.177093707669222],[11.571819480723489,48.17767185885333],[11.572259871153882,48.177757510326124],[11.573558105443482,48.17790434108943],[11.575718770992591,48.177889046237866],[11.577191326494219,48.177736097471346],[11.580411681516463,48.177463847537986],[11.582824654082991,48.177427139571186],[11.584685991761447,48.177479142516376],[11.586159694113153,48.177493672741626],[11.586912027765074,48.177444728808538],[11.587664361416993,48.177325427775884],[11.58833870926353,48.177200008442242],[11.589113979917038,48.176976700088716],[11.589549782947108,48.1768008058378],[11.590100270985101,48.176583613843199],[11.592494893950359,48.175624593120141],[11.594146358064332,48.174914875644909],[11.594726664204384,48.174629609279783],[11.594793181508974,48.174599017618249],[11.596440058222628,48.173775330269883],[11.598813273319747,48.172592929572453],[11.599085459071862,48.172449142893463],[11.599269719651247,48.172346146513853],[11.59953120146929,48.17217227591852],[11.599671881745667,48.172039705566995],[11.599805680921564,48.171876031698673],[11.599880608460071,48.171738871574917],[11.599942538364342,48.171574686855145],[11.599963181665773,48.171424778608433],[11.599964710799211,48.17130852293171],[11.599937186397312,48.171125980591711],[11.599879843893355,48.170976071033252],[11.599835499023627,48.170893467619905],[11.59971316834852,48.170693587204973],[11.599373700725092,48.170197961998817],[11.59852961906684,48.16899865155753],[11.598028063298891,48.168292921761513],[11.596908737621646,48.166644821296238],[11.596602910933871,48.166187912780941],[11.596355191316777,48.165928860162836],[11.596238977175421,48.165602492797142],[11.596015723693348,48.165080300692416],[11.595969849690183,48.164878357788901],[11.595914800886383,48.164513226682296],[11.595933150487651,48.16403794039838],[11.596052422895882,48.163674843188353],[11.596177811837871,48.163411698098308],[11.596315433847368,48.163228107701151],[11.596722183284777,48.162862964865234],[11.596538223908473,48.162822505099513],[11.596223181841975,48.162767420321671],[11.59608860076502,48.162728656924031],[11.595966254331428,48.162649089858157],[11.595565569761417,48.16234714192116],[11.59396283148136,48.161155654339147],[11.592494674278251,48.160143684248013],[11.592005288543882,48.15913169419386],[11.590830762781403,48.157956454884939],[11.589558359872042,48.157581025543102],[11.58943601343845,48.156650601855119],[11.590047745606411,48.15555692436795],[11.589876460599381,48.154414251344789],[11.588591823046666,48.153255228425699],[11.587025788696689,48.151590107424568],[11.586108190444746,48.15004737357188],[11.584627798598282,48.150022885359022],[11.584603329311564,48.149916769634913],[11.584835787535384,48.149524955829726],[11.585007072542416,48.14788420302925],[11.584750145031874,48.146806665191605],[11.584266876619184,48.145504610120632],[11.583881485353368,48.144822956832598],[11.583549440788248,48.144075637897984],[11.582135508328211,48.144470968056602],[11.580640701839284,48.144822639565064],[11.57746934947069,48.145494446714267],[11.576898687783734,48.145478682387335],[11.576317121733332,48.145464130696638],[11.575699207804782,48.145381671038045],[11.574855937031698,48.145333165294637],[11.573947240077942,48.143751852953955],[11.573721883233413,48.143101851544927],[11.573481987237621,48.142738041193425],[11.573169395485532,48.142160790144366],[11.571599167149447,48.141729060326867],[11.570814052981405,48.14149136483254],[11.569898086452023,48.141180903753792],[11.569076624405831,48.140889844787182],[11.568086144726239,48.14053329530411],[11.567824440003559,48.140442338406878],[11.567629978855456,48.140399891799682],[11.567500943888023,48.140373211057195],[11.56740098722311,48.140370785534458],[11.567281039225215,48.140359870680754],[11.5672047086811,48.140355019633908],[11.566863038626488,48.140236168843167],[11.566063385307187,48.139677081329779],[11.56575533703986,48.1393417471619],[11.565166304339785,48.139621480907067],[11.561498205327549,48.140846805733311],[11.561025132450983,48.140950218816705],[11.556636973699364,48.14191902600664],[11.556017085102477,48.141902697947046],[11.554679430761832,48.142131290308605],[11.553765910724323,48.142302733911755],[11.552929876761425,48.142180274253654],[11.551975574579378,48.142027879604477],[11.550752110243428,48.141924468692018],[11.550083283073104,48.141924468692018],[11.549251327324656,48.141995223549365],[11.548427528005117,48.142055092967873],[11.538860036897962,48.142746307561026],[11.536963667177236,48.142822503875728],[11.534771626908654,48.142787127029408]]]]}},
{"type":"Feature","properties":{"id":1,"name":"South West","key":"II- South West"},"geometry":{"type":"MultiPolygon","coordinates":[[[[11.582103070348797,48.134617861285442],[11.582139626195072,48.134591168374463],[11.582456156816917,48.134230669206701],[11.582883860218308,48.13364643130334],[11.583427467155824,48.132930009649719],[11.584890346109903,48.132179851504581],[11.586107655790792,48.131692323456164],[11.585825530671322,48.131515506778989],[11.577922586775916,48.127754025496429],[11.56868556952595,48.123300401570063],[11.564037601189456,48.120672800513034],[11.56362473516096,48.120417856486277],[11.563247994909961,48.120183582481317],[11.562386137075482,48.119677133554738],[11.562076487554116,48.119501425617734],[11.561921662793429,48.119336052892734],[11.561808124635595,48.119212022999641],[11.561560405018497,48.118943290537366],[11.561168182291429,48.118550525179273],[11.560703708009374,48.118081959069826],[11.560063765665209,48.1174135559001],[11.559805724397402,48.116717580471914],[11.55910385214896,48.115180888465233],[11.559289641861781,48.114174778219997],[11.559289641861781,48.113678607010186],[11.559488333637995,48.113213442149636],[11.559558004780301,48.113044603492],[11.559568326431014,48.112644901601463],[11.55718402511647,48.112381303394777],[11.552139963434092,48.112423370083924],[11.550829973931185,48.112436004441143],[11.548474917293655,48.112230408605924],[11.545713875728103,48.111991502914961],[11.545144464663814,48.11201562325148],[11.543417308444619,48.111790499670363],[11.54270167399523,48.111716989716008],[11.541869060837771,48.111317277498678],[11.541359859402625,48.111109379972675],[11.540778406412498,48.110902630217645],[11.539961275731105,48.110841753742363],[11.539498521724166,48.110804998099738],[11.538956635061769,48.110732635351482],[11.53747891873479,48.110733783967333],[11.53641234816118,48.11077743135052],[11.53465078643961,48.110804998099738],[11.533554397763945,48.110624282474433],[11.530902880380955,48.110330235352947],[11.528517432216331,48.110060690680214],[11.526191620255815,48.110039249565986],[11.520810599684458,48.11004843861604],[11.520010098329211,48.110091320827848],[11.519441260689954,48.110215372739134],[11.518991695458929,48.11039915279801],[11.51853295542727,48.110699325480752],[11.518120089398773,48.111134266461171],[11.517702635969965,48.111685594807632],[11.517539783258723,48.112131247564562],[11.517383811647962,48.112460507428118],[11.517282888840997,48.11289237065543],[11.5172003156353,48.113462057020428],[11.517103980228653,48.113967418670562],[11.517071868426438,48.115651921608176],[11.51705351882517,48.116546217088867],[11.517097099128177,48.11729196186301],[11.51720260933546,48.117699284006633],[11.517308119542744,48.117801114037967],[11.517821908378199,48.119087370741511],[11.51866599003645,48.121010570690146],[11.521067494102192,48.124913404037358],[11.521212829760847,48.125050110840341],[11.521278255941519,48.125200537907851],[11.521445456181009,48.125355816999317],[11.521518151937309,48.125448013737753],[11.521606513639387,48.125502860739715],[11.521794597052368,48.125766200249132],[11.522354259890992,48.126271440876529],[11.524248856221746,48.127649344599526],[11.524620435647387,48.127885115532671],[11.524670897050871,48.127898894319962],[11.525074588278731,48.128122416352994],[11.529738827550618,48.130792740474291],[11.531261844455727,48.131688303252979],[11.532915602269856,48.132709378852795],[11.533237867142095,48.132961200223633],[11.533495908409902,48.133230242056221],[11.533619768218458,48.133502726799776],[11.533782620929694,48.13381730710708],[11.533975291742989,48.134297975971194],[11.534306731415862,48.135772866517065],[11.534492521128684,48.136662219582355],[11.534577388034537,48.137311238602031],[11.534655373839922,48.137384711936342],[11.534732212795225,48.137902849027398],[11.534782674198707,48.139032476905903],[11.534771779122956,48.142787009931823],[11.536962406130385,48.142822499137182],[11.538854135335944,48.142746450809888],[11.549198723049857,48.14199801446874],[11.550082944460879,48.141924547736657],[11.550756145457337,48.141925313015655],[11.55196951284108,48.14202709502112],[11.553764333214943,48.142301828900486],[11.556014453070233,48.141902737280333],[11.556638912938334,48.141918425504244],[11.561496969873597,48.140845492996242],[11.565167463551916,48.13962253687027],[11.565750793555093,48.139341140784822],[11.565636297738916,48.138946983913094],[11.565225566715823,48.136499505204668],[11.565280088533049,48.135956144253853],[11.56629782912125,48.134347859170106],[11.56679579505191,48.13354248481437],[11.56718289995421,48.132862030671937],[11.567295578376473,48.132761356655188],[11.567443695979939,48.13273406547205],[11.568012540272983,48.132726787820772],[11.568182466603334,48.132728000762725],[11.568425997386941,48.132620655289024],[11.568575023687357,48.132543026784049],[11.5689003371968,48.132328334838874],[11.570214312991927,48.131863772359544],[11.570439669836457,48.131866198284186],[11.570639583166281,48.131905013062948],[11.571028505462488,48.132072401460249],[11.575379346477055,48.134681406597117],[11.575472033566339,48.13473113530064],[11.575968182103086,48.134572245859516],[11.576079043131443,48.134527368600082],[11.576237156401399,48.134483704201898],[11.576458878458112,48.134464297790792],[11.577936419704914,48.134481278400919],[11.579971900881324,48.134714154773157],[11.581213180920148,48.134777225275528],[11.581603920610263,48.134833018347678],[11.581740225153325,48.134877895339976],[11.58181655569744,48.134894875813316],[11.582029958656252,48.134666654742773],[11.582065654364964,48.134644554182557],[11.582103070348797,48.134617861285442]]]]}},
{"type":"Feature","properties":{"id":2,"name":"North East","key":"III- North East"},"geometry":{"type":"MultiPolygon","coordinates":[[[[11.596730139614413,48.162861514597303],[11.596736268094498,48.162851187544092],[11.596765297737125,48.162811600487693],[11.596839484601622,48.162747916898084],[11.597078817877511,48.162566332174656],[11.598047117734966,48.161949713849509],[11.599781155054636,48.160985829462362],[11.600431419049517,48.160491831694344],[11.601102326345815,48.159913486799304],[11.601556478977162,48.159335135384126],[11.602490588366624,48.158243823586076],[11.60301699255295,48.157768734225677],[11.603584683342129,48.157448562827433],[11.604188499908807,48.157083633850959],[11.604797477300835,48.156808214036751],[11.605633531008534,48.156484593865798],[11.606934058998286,48.155947517587904],[11.608224265337329,48.15547240696332],[11.609400933518531,48.154962863143375],[11.610701461508286,48.154425770936314],[11.611351725503162,48.154095249860639],[11.612729665873252,48.153410100433192],[11.613596684533089,48.15282823268037],[11.614664975381819,48.152105192551453],[11.615387490931685,48.151368369748639],[11.615728105405191,48.150858785173035],[11.615924216768725,48.150438718407138],[11.61612032813226,48.149498720483024],[11.616130649782969,48.149181940746935],[11.616146132259038,48.148679221064974],[11.616099684830834,48.148055979553973],[11.61583519253133,48.146628693548031],[11.615766811595362,48.146165548787387],[11.615619728072712,48.145383874916753],[11.6155268332163,48.144688278466646],[11.615325561027408,48.143687911599557],[11.615129449663877,48.142582492145962],[11.614822380555184,48.140407742336357],[11.614621108366292,48.13941934578029],[11.614523052684525,48.139035346863601],[11.614517891859164,48.138349996367893],[11.614584982588795,48.137149749966312],[11.614626269191648,48.136364494668989],[11.614997848617291,48.135593004084477],[11.61610226524351,48.133702114298337],[11.616308698257759,48.133250908084499],[11.616311278670434,48.132949527679635],[11.61622612505206,48.132620590476044],[11.616045496164595,48.132167652553683],[11.61583648273767,48.131588988406932],[11.615673916738951,48.13118598630988],[11.61547264455006,48.130669312328102],[11.615266211535811,48.130025184817548],[11.614951401189085,48.129809899757262],[11.615031393982106,48.129549834200851],[11.615116547600479,48.129076201492943],[11.615224924932958,48.128786852816567],[11.615526833216299,48.128263265353418],[11.615707462103764,48.128072085705924],[11.615895832229262,48.127870571253005],[11.616104845656187,48.127677667788127],[11.616672536445366,48.127204017814151],[11.617364087043093,48.126723473922077],[11.618432377891816,48.126143026021268],[11.618760090301929,48.125960450547929],[11.619090383124725,48.125781319264092],[11.619443899661629,48.125588407952037],[11.619663234739265,48.125429944546546],[11.619823220325305,48.125286982576448],[11.619985786324026,48.125131963123053],[11.620158673973453,48.124897710616921],[11.620256729655225,48.124739245080491],[11.620403813177873,48.12440681035573],[11.620504449272321,48.124131215170323],[11.62051993174839,48.123960689908841],[11.620550896700523,48.123679924861079],[11.620535414224454,48.123288918219338],[11.620483805970892,48.122255406157201],[11.620406393590553,48.122202007469063],[11.620372848225738,48.121981521975364],[11.620303177083425,48.121581889605906],[11.620243827591828,48.12132005981605],[11.620202540988982,48.12106856415609],[11.620174156449524,48.12090664164127],[11.620039974990261,48.120572459518307],[11.61988773064226,48.120202100502176],[11.619828381150663,48.120031562196949],[11.619717423405508,48.119843797145471],[11.619278753250237,48.119059138517954],[11.619081351680364,48.118688768591795],[11.618887820729505,48.118302891968163],[11.61873815679418,48.117982474354996],[11.618601394922241,48.117656886668826],[11.618443989748883,48.117308901781342],[11.618325290765689,48.117049634280995],[11.618204011369821,48.116812760836297],[11.618046606196462,48.116491472564306],[11.617791145341325,48.115871285767284],[11.617476334994603,48.115264873660671],[11.61707379061682,48.114486174891539],[11.616578351382627,48.113803942377388],[11.615990017292026,48.113066569777274],[11.615375879074639,48.112473907493964],[11.614502409383112,48.111812322917643],[11.614258560385034,48.111654678461207],[11.614121798513095,48.111784756708786],[11.614019872212312,48.111992364355558],[11.613911494879831,48.112176712351285],[11.613857306213591,48.112269316819223],[11.613770862388877,48.112443757340415],[11.613694095111708,48.112623365850929],[11.613581202057039,48.112946831872783],[11.613513143672655,48.113136775685035],[11.613394767241045,48.113445809752129],[11.613346384503334,48.113692604961507],[11.613324450995572,48.113819663114938],[11.613275423154688,48.113994098373148],[11.613099955092574,48.114674605570947],[11.613071570553116,48.114947667317807],[11.613048669390595,48.115179381037343],[11.613007382787742,48.115292653348966],[11.612852558027059,48.115733680806954],[11.611975217716509,48.116505469749399],[11.610963695946705,48.117270356280628],[11.60973541951194,48.11819199496933],[11.609397385451114,48.11844350471187],[11.608895495185225,48.118767364758618],[11.607393049903406,48.119761757383486],[11.606293794102545,48.120464581964214],[11.605122286746694,48.121208738686953],[11.604544274306804,48.121801300219495],[11.603888849486571,48.122517877127862],[11.602051595659777,48.123627173588055],[11.600493026402217,48.124515971477344],[11.598284193149778,48.125769908235654],[11.595848283581669,48.1272442782318],[11.593897491597037,48.128443033854715],[11.592720823415835,48.129214631867988],[11.589286294141303,48.131577578668832],[11.58768901869357,48.131412244821043],[11.586413004624264,48.131668856502579],[11.586113676753607,48.131691245380416],[11.584921526096332,48.132162270662697],[11.583437788806433,48.13292175753903],[11.583329411473956,48.133056087382059],[11.582888160906005,48.133638179307788],[11.582632700050874,48.133985192508639],[11.582508840242324,48.134165156247619],[11.582224994847733,48.134496666747296],[11.582142421642036,48.134589661516024],[11.582030173690539,48.134666511232531],[11.581820190485258,48.134900940266725],[11.582592582895948,48.135275722097184],[11.583112357553494,48.135525575131034],[11.583348618761471,48.135671120027226],[11.583541262515668,48.135863966379198],[11.583870210812925,48.136347898374886],[11.583917463054521,48.136454629629675],[11.583959263114396,48.13652740081254],[11.584041954537188,48.13672206321975],[11.584166446019848,48.137186581745304],[11.584377263713117,48.13809862678],[11.584359316948275,48.13829828607286],[11.584366359349675,48.138396978420623],[11.584661988758622,48.13906967819694],[11.584645026415485,48.139254022269988],[11.584600197365766,48.139342959963258],[11.583102664786015,48.140767559103899],[11.582923348587144,48.141005257949715],[11.582945157314034,48.141272061465614],[11.583003313919075,48.141396569298479],[11.583209285228588,48.141707029072919],[11.584218544645198,48.143897980868637],[11.584157964848286,48.143914149906962],[11.583555801666943,48.144077456908541],[11.58427190720462,48.145504828535387],[11.584744122724709,48.146759113669788],[11.585025387706619,48.14785411310482],[11.58480863304167,48.1495344441621],[11.584633164979561,48.149920086150551],[11.584674451582407,48.150009609769121],[11.586129804332844,48.15004404188852],[11.587038109595532,48.151586577136932],[11.588586357202374,48.153253014005159],[11.589881724366778,48.154416733278971],[11.590046870778174,48.155558047699913],[11.589440473798826,48.156647695244367],[11.58958239649612,48.157584119510119],[11.5908209945816,48.157942159565479],[11.592007984413518,48.159147083705342],[11.59248794117164,48.160141985449954],[11.593814273288173,48.16105424863882],[11.594701935249436,48.161708314147191],[11.595994722001151,48.162670463777168],[11.596092777682927,48.162730705103577],[11.596206315840762,48.162765128686907],[11.596730139614413,48.162861514597303]]]]}},
{"type":"Feature","properties":{"id":3,"name":"South East","key":"IV- South East"},"geometry":{"type":"MultiPolygon","coordinates":[[[[11.559581228494407,48.1126483473207],[11.559554134161305,48.113015315096945],[11.559306414544205,48.113704449378965],[11.559141268132809,48.115165383491046],[11.560090859998343,48.117453177979925],[11.562072616935112,48.11949281246811],[11.56401308726903,48.120650406831636],[11.564244034203702,48.120789936533555],[11.568541711519069,48.123246286257995],[11.584215138125742,48.130752411077658],[11.585366002180168,48.13129663997843],[11.586109161031459,48.131691030102807],[11.586186573411805,48.131685863439543],[11.586405908489439,48.131666919003095],[11.586568474488157,48.13162214121644],[11.58679297039115,48.131582530064946],[11.58736840241837,48.13146886311273],[11.587683212765095,48.131417196233102],[11.587755464320079,48.131422362923409],[11.588083176730196,48.131446474137952],[11.588428952029057,48.131477474254297],[11.588795370629349,48.13151880771364],[11.589130824277499,48.131561863365093],[11.589293390276181,48.131573918941008],[11.589463697512972,48.131492974305445],[11.589960426953471,48.131148097061185],[11.591912509144471,48.129775884635229],[11.592428591680086,48.129436593323533],[11.592693083979563,48.129257474163524],[11.593467207782989,48.128742503098579],[11.594560012552181,48.128036347089292],[11.597532647957332,48.126217520072835],[11.598008734096409,48.125924710461874],[11.602590256806371,48.123337578899751],[11.603797889939715,48.122559002482518],[11.604200434317496,48.122138704113688],[11.605077774628041,48.121249865089695],[11.609416738546214,48.118429077388384],[11.612070692985649,48.116436775835346],[11.612754502345339,48.115826924897064],[11.612865460090498,48.115709777560355],[11.612891264217277,48.115647758273965],[11.612945452883517,48.115461699965635],[11.61304866939064,48.115179165690549],[11.6131002776442,48.114672667430405],[11.613322193134517,48.113818155647223],[11.613394444689499,48.113446025106292],[11.613518304498051,48.11312902289017],[11.613711835448907,48.112570818581972],[11.613858918971557,48.112265871074648],[11.614016324144895,48.111998825161052],[11.614119540652021,48.111792078984521],[11.614253722111309,48.111657693523739],[11.613113179707595,48.110906506783088],[11.612026825970126,48.110346555395061],[11.611691372321973,48.110210443212779],[11.611183031024392,48.109995075099249],[11.610762423757871,48.109853793126533],[11.610254082460287,48.109684943430139],[11.609792188590912,48.109528153929595],[11.609304490594752,48.109400654422672],[11.608677450313976,48.109252478922571],[11.608238780158709,48.109166330179619],[11.607674959988547,48.109071566395563],[11.606767944932201,48.108953542165622],[11.605529346846723,48.108815703305801],[11.604933271518085,48.108774351575782],[11.603870141494719,48.108633066247101],[11.603028926961663,48.108512456512869],[11.602755403217788,48.108453874539833],[11.602099978397554,48.108305696309955],[11.599731159559072,48.107752608678531],[11.598771246042828,48.107537230264818],[11.597199774721874,48.107239145051217],[11.596621762281986,48.107046164106613],[11.596048910667452,48.106711891827267],[11.595429611624713,48.106587831459088],[11.594676131122712,48.106453432388967],[11.593716217606465,48.106236325456379],[11.592813073169138,48.10595718662406],[11.591940893683944,48.105667707715234],[11.591099679150888,48.10540924302606],[11.590547470837778,48.105271394660384],[11.589350159355149,48.10502671290083],[11.588127043745736,48.10485784734518],[11.587161969404136,48.104792368715152],[11.586522027059969,48.104761352492858],[11.585701455828342,48.104754459996492],[11.584896367072778,48.104792368715152],[11.58431835463289,48.104840616134837],[11.583724859716931,48.104854401103573],[11.58333263698986,48.104833723649087],[11.582852680231737,48.104799261206459],[11.582506904932876,48.10485784734518],[11.58221789871293,48.105047390277669],[11.581882445064782,48.105491951867997],[11.581340558402385,48.10605367923138],[11.580566434598964,48.106901427922644],[11.580122603618337,48.107525169046987],[11.579384605592404,48.109037968284753],[11.57897690038927,48.109744385478407],[11.578486621980433,48.110426671890814],[11.577673791986841,48.110991791151463],[11.577358981640113,48.11119164891462],[11.577054492944098,48.11134326463025],[11.576657109391677,48.111513831775653],[11.576004264984119,48.111713687508512],[11.575115312816521,48.111904928042399],[11.574631485439381,48.111997102279766],[11.574336028187743,48.112032421336259],[11.574050892586813,48.112046204376107],[11.573599320368153,48.112025529814936],[11.573070335769145,48.111997963720455],[11.572425232599624,48.111932494186782],[11.57162272425674,48.11187391611228],[11.571055033467562,48.111868747455418],[11.570275748838784,48.111949723019514],[11.569769987953878,48.112072047565839],[11.569584198241063,48.112158191437807],[11.569437114718411,48.112273623999847],[11.569039731165988,48.112488982564216],[11.568606221836069,48.112652654469507],[11.567979181555293,48.112818048707382],[11.56709668041939,48.112976551019131],[11.565243944116522,48.113203966525461],[11.56466077085128,48.11318156958847],[11.564124045014239,48.113121270094148],[11.563429914003835,48.11308681320849],[11.562792552072352,48.11305235629974],[11.561657170493996,48.112911082732246],[11.559758846900484,48.112658971620327],[11.559581228494407,48.1126483473207]]]]}},
{"type":"Feature","properties":{"id":4,"name":"Altstadt","key":"V- Altstadt"},"geometry":{"type":"MultiPolygon","coordinates":[[[[11.574886984177734,48.145332895817901],[11.575087301372886,48.145364155080181],[11.57541362454563,48.145371700416504],[11.575616516382144,48.145394370103347],[11.576412938778928,48.145450421113665],[11.576824881397956,48.145469823372196],[11.577483989588398,48.145498926746257],[11.578839361578062,48.145238882124545],[11.579577223504494,48.145081237852317],[11.582256062124101,48.144445805261292],[11.583465234870536,48.144102215659856],[11.58385779195455,48.144000351006603],[11.584220967837076,48.143897980868637],[11.583974105164629,48.14332933276269],[11.583211708420446,48.141713598025738],[11.583029363231729,48.14144315859663],[11.582939705132294,48.141272566774006],[11.582925165981035,48.14100818875346],[11.583087519836768,48.14079070244977],[11.584603226355595,48.139340635457359],[11.584643209021561,48.139251293497452],[11.58465835397079,48.13917569633302],[11.584658353970786,48.139067757942726],[11.584367949569335,48.138394401203499],[11.584358483976059,48.138298437674173],[11.58436575355169,48.138175539411499],[11.584374234723258,48.138107621824332],[11.584335463653233,48.137936210371464],[11.584164022827963,48.13717374588952],[11.584153724262487,48.137077123123987],[11.584134338727475,48.137015268287399],[11.584125251757936,48.136978478774083],[11.584087086485882,48.136881451359791],[11.584061642971177,48.136807063551331],[11.584043469032103,48.136734292764828],[11.584008938547864,48.136649999808213],[11.583981677639251,48.136582888770178],[11.583904741297165,48.13642643076858],[11.583864758631202,48.136344765162356],[11.583743599037371,48.13613534484579],[11.583539445121767,48.135861237426447],[11.583351647751332,48.135679711206137],[11.583217766400152,48.135580053442581],[11.583069648796695,48.135494545714394],[11.582437195716894,48.135193751439743],[11.581782933910207,48.134888103839522],[11.581632090215889,48.134842620410168],[11.581228628768429,48.134769846839376],[11.580273588270053,48.13471829883099],[11.580012792244331,48.134707382775517],[11.579751996218608,48.134663718530426],[11.579650222159794,48.13463369934037],[11.578065454672483,48.134477235399039],[11.576462058897622,48.134460254787584],[11.57628622603707,48.134477235399039],[11.576127204070167,48.134509983705286],[11.57600907346618,48.134554860979918],[11.575467490081751,48.13473497613348],[11.570978527130308,48.132032576009451],[11.5707822485883,48.131929474444959],[11.57054598738033,48.131874891179962],[11.570297004415005,48.131848206007049],[11.568903063287976,48.132327324046109],[11.568648628140931,48.132494711066805],[11.568534132324759,48.132569913753542],[11.568352392934013,48.132648755161689],[11.568179740512804,48.132725170564839],[11.567756287732363,48.13273002233263],[11.567467322101077,48.13273002233263],[11.567305574043313,48.132760345870935],[11.567245600044364,48.13279855350369],[11.567190169530187,48.132852529317397],[11.56703205626024,48.133114523472202],[11.566835777718232,48.133475976176697],[11.5664632119672,48.134090925098974],[11.566185150699358,48.134532422347498],[11.565893156078223,48.135003429420941],[11.56529220449282,48.135946239183156],[11.565231624695906,48.136491217376168],[11.565347937905983,48.137139685374713],[11.56560721943678,48.138876439620276],[11.565752610949376,48.139338917344183],[11.566067625893337,48.139678496237053],[11.566867279212623,48.140237987989863],[11.567196833307845,48.140354413252894],[11.567482769949287,48.140370583407432],[11.567754167439469,48.140422327867711],[11.568030411313405,48.140522582611119],[11.568452046699937,48.140671347353397],[11.569738761586427,48.141143510853794],[11.571359876951888,48.141649626495685],[11.573145769364961,48.142173523693231],[11.573727335415349,48.14305799232239],[11.573935729916741,48.14373386484143],[11.574886984177734,48.145332895817901]]]]}}
]
}
